YOTSUBA-KULOVER         
1 65941U 98067XN  26066.23891874  .00265557  00000+0  13994-2 0  9994
2 65941  51.6206  69.9935 0005817  51.4976 308.6546 15.79338346 23119
E-KAGAKU-1              
1 65943U 98067XQ  26066.24285552  .00257698  00000+0  13785-2 0  9992
2 65943  51.6230  70.0378 0006123  57.4847 302.6745 15.79025716 23115
HRC MONOBLOCK CAMERA    
1 66052U 98067XR  26066.26927721  .00068611  00000+0  77330-3 0  9999
2 66052  51.6272  77.7457 0003583  81.1712 278.9687 15.61885249 22011
HTV-X1                  
1 66174U 25241A   26066.25459274  .00014982  00000+0  28421-3 0  9999
2 66174  51.6318  84.3952 0008142 166.2106 193.9106 15.48501510554472
SZ-21 MODULE            
1 66515U 25246C   26065.50767940  .00041950  00000+0  36494-3 0  9996
2 66515  41.4735 222.9439 0001433 292.6372  67.4317 15.68252686 17579
SHENZHOU-22             
1 66645U 25272A   26066.15577909  .00030452  00000+0  36120-3 0  9996
2 66645  41.4664 223.5772 0006995 257.5663 102.4393 15.60515598267524
SOYUZ-MS 28             
1 66664U 25275A   26066.25459274  .00014982  00000+0  28421-3 0  9990
2 66664  51.6318  84.3952 0008142 166.2106 193.9106 15.48501510554522
DUPLEX                  
1 66906U 98067XS  26066.27423627  .00039972  00000+0  56716-3 0  9997
2 66906  51.6285  81.5298 0002223 101.9633 258.1608 15.56027322 14751
ISS OBJECT XT           
1 66907U 98067XT  26066.28963071  .00198895  00000+0  16947-2 0  9992
2 66907  51.6250  77.8696 0004648  63.6364 296.5109 15.68379385 14802
ISS OBJECT XU           
1 66908U 98067XU  26066.28800162  .00203645  00000+0  17262-2 0  9995
2 66908  51.6244  77.8556 0004813  65.5331 294.6167 15.68489622 14809
SILVERSAT               
1 66909U 98067XV  26066.29346489  .00253597  00000+0  19116-2 0  9995
2 66909  51.6247  77.1411 0005453  60.9415 299.2128 15.71158496 14814
ISS OBJECT XW           
1 66910U 98067XW  26066.28354968  .00181703  00000+0  15885-2 0  9995
2 66910  51.6239  77.8210 0005017  72.1474 288.0069 15.67806072 14801
